{
  "type": "FeatureCollection",
  "features": [
    {
      "type": "Feature",
      "properties": {
        "id": "poly-bg-01",
        "zoneId": "moil-bg-01",
        "name": "Balaghat Lease Area Block A",
        "areaHectares": 438.5,
        "mineral": "Manganese Ore",
        "leaseStatus": "Active - Valid till 2045",
        "riskLevel": "CRITICAL",
        "fillColor": "#ef4444"
      },
      "geometry": {
        "type": "Polygon",
        "coordinates": [
          [
            [80.1850, 21.8650],
            [80.2120, 21.8680],
            [80.2150, 21.8850],
            [80.1880, 21.8820],
            [80.1850, 21.8650]
          ]
        ]
      }
    },
    {
      "type": "Feature",
      "properties": {
        "id": "poly-db-02",
        "zoneId": "moil-db-02",
        "name": "Dongri Buzurg Mining Lease",
        "areaHectares": 312.0,
        "mineral": "Manganese Ore",
        "leaseStatus": "Active - Valid till 2038",
        "riskLevel": "HIGH",
        "fillColor": "#f97316"
      },
      "geometry": {
        "type": "Polygon",
        "coordinates": [
          [
            [79.7020, 21.5450],
            [79.7250, 21.5480],
            [79.7280, 21.5620],
            [79.7050, 21.5600],
            [79.7020, 21.5450]
          ]
        ]
      }
    },
    {
      "type": "Feature",
      "properties": {
        "id": "poly-chk-03",
        "zoneId": "moil-chk-03",
        "name": "Chikla Lease Boundary",
        "areaHectares": 215.8,
        "mineral": "Manganese Ore",
        "leaseStatus": "Active - Valid till 2040",
        "riskLevel": "HIGH",
        "fillColor": "#f97316"
      },
      "geometry": {
        "type": "Polygon",
        "coordinates": [
          [
            [79.7580, 21.5420],
            [79.7780, 21.5450],
            [79.7820, 21.5590],
            [79.7610, 21.5580],
            [79.7580, 21.5420]
          ]
        ]
      }
    },
    {
      "type": "Feature",
      "properties": {
        "id": "poly-gum-04",
        "zoneId": "moil-gum-04",
        "name": "Gumgaon Concession Area",
        "areaHectares": 184.2,
        "mineral": "Manganese Ore",
        "leaseStatus": "Active - Valid till 2042",
        "riskLevel": "MEDIUM",
        "fillColor": "#f59e0b"
      },
      "geometry": {
        "type": "Polygon",
        "coordinates": [
          [
            [78.9550, 21.4080],
            [78.9780, 21.4110],
            [78.9800, 21.4250],
            [78.9580, 21.4220],
            [78.9550, 21.4080]
          ]
        ]
      }
    },
    {
      "type": "Feature",
      "properties": {
        "id": "poly-trd-05",
        "zoneId": "moil-trd-05",
        "name": "Tirodi Mining Lease",
        "areaHectares": 162.4,
        "mineral": "Manganese Ore",
        "leaseStatus": "Active - Valid till 2036",
        "riskLevel": "LOW",
        "fillColor": "#10b981"
      },
      "geometry": {
        "type": "Polygon",
        "coordinates": [
          [
            [79.7080, 21.6780],
            [79.7280, 21.6810],
            [79.7310, 21.6960],
            [79.7110, 21.6940],
            [79.7080, 21.6780]
          ]
        ]
      }
    },
    {
      "type": "Feature",
      "properties": {
        "id": "poly-man-06",
        "zoneId": "moil-man-06",
        "name": "Mansar Concession",
        "areaHectares": 128.0,
        "mineral": "Manganese Ore",
        "leaseStatus": "Active - Valid till 2048",
        "riskLevel": "LOW",
        "fillColor": "#10b981"
      },
      "geometry": {
        "type": "Polygon",
        "coordinates": [
          [
            [79.2780, 21.3920],
            [79.2980, 21.3950],
            [79.3010, 21.4090],
            [79.2810, 21.4080],
            [79.2780, 21.3920]
          ]
        ]
      }
    },
    {
      "type": "Feature",
      "properties": {
        "id": "poly-knd-07",
        "zoneId": "moil-knd-07",
        "name": "Kandri Pit Lease",
        "areaHectares": 145.5,
        "mineral": "Manganese Ore",
        "leaseStatus": "Active - Valid till 2041",
        "riskLevel": "MEDIUM",
        "fillColor": "#f59e0b"
      },
      "geometry": {
        "type": "Polygon",
        "coordinates": [
          [
            [79.2640, 21.4100],
            [79.2840, 21.4120],
            [79.2860, 21.4260],
            [79.2660, 21.4240],
            [79.2640, 21.4100]
          ]
        ]
      }
    },
    {
      "type": "Feature",
      "properties": {
        "id": "poly-ukw-08",
        "zoneId": "moil-ukw-08",
        "name": "Ukwa Deep Mine Lease",
        "areaHectares": 290.0,
        "mineral": "Manganese Ore",
        "leaseStatus": "Active - Valid till 2044",
        "riskLevel": "MEDIUM",
        "fillColor": "#f59e0b"
      },
      "geometry": {
        "type": "Polygon",
        "coordinates": [
          [
            [80.4600, 21.9580],
            [80.4850, 21.9610],
            [80.4880, 21.9780],
            [80.4630, 21.9750],
            [80.4600, 21.9580]
          ]
        ]
      }
    }
  ]
}
